IRIDIUM 116             
1 43072U 17083C   25188.83758255  .00000010  00000+0 -33988-5 0  9999
2 43072  86.3969 105.9803 0001936  82.3072 277.8344 14.34217620394816
IRIDIUM 130             
1 43073U 17083D   25188.80586963  .00000021  00000+0  27778-6 0  9994
2 43073  86.3977 106.2355 0001960  75.6744 284.4669 14.34217678394750
IRIDIUM 151             
1 43074U 17083E   25188.85026799  .00000041  00000+0  74419-5 0  9991
2 43074  86.3971 106.0252 0001962  84.5053 275.6367 14.34217674394789
IRIDIUM 134             
1 43075U 17083F   25188.81855514  .00000009  00000+0 -36981-5 0  9990
2 43075  86.3970 106.0415 0001961  76.1804 283.9610 14.34217550394742
IRIDIUM 137             
1 43076U 17083G   25188.83123952  .00000016  00000+0 -13758-5 0  9992
2 43076  86.3972 106.1220 0001609  98.4370 261.7009 14.34217565394814
IRIDIUM 141             
1 43077U 17083H   25188.82490254  .00000198  00000+0  63492-4 0  9993
2 43077  86.3968 105.9749 0002427  84.1578 275.9895 14.34215921394818
IRIDIUM 153             
1 43078U 17083J   25188.91661479  .00000025  00000+0  20043-5 0  9998
2 43078  86.3948  74.3998 0002599  81.3288 278.8202 14.34217596395937
IRIDIUM 131             
1 43079U 17083K   25188.81221323  .00000021  00000+0  42900-6 0  9991
2 43079  86.3974 106.1433 0002329  87.2675 272.8787 14.34217725394745
